[{"OBJECT_NAME":"FLOCK 4G-18","OBJECT_ID":"2025-009BZ","EPOCH":"2026-03-09T04:35:14.656704","MEAN_MOTION":15.27241676,"ECCENTRICITY":0.00041001,"INCLINATION":97.4054,"RA_OF_ASC_NODE":150.5008,"ARG_OF_PERICENTER":335.7331,"MEAN_ANOMALY":24.3715,"EPHEMERIS_TYPE":0,"CLASSIFICATION_TYPE":"U","NORAD_CAT_ID":62680,"ELEMENT_SET_NO":999,"REV_AT_EPOCH":12126,"BSTAR":0.0004431856,"MEAN_MOTION_DOT":0.00011766,"MEAN_MOTION_DDOT":0},{"OBJECT_NAME":"PEGASUS R\/B","OBJECT_ID":"2007-015B","EPOCH":"2026-03-09T10:58:33.801024","MEAN_MOTION":15.26741121,"ECCENTRICITY":0.00105976,"INCLINATION":97.9168,"RA_OF_ASC_NODE":31.3919,"ARG_OF_PERICENTER":317.6341,"MEAN_ANOMALY":42.4077,"EPHEMERIS_TYPE":0,"CLASSIFICATION_TYPE":"U","NORAD_CAT_ID":31305,"ELEMENT_SET_NO":999,"REV_AT_EPOCH":3383,"BSTAR":0.00044093522,"MEAN_MOTION_DOT":0.00011537,"MEAN_MOTION_DDOT":0}]
